NORAD_CAT_ID,OBJECT_NAME,OBJECT_TYPE,EPOCH,MEAN_MOTION,ECCENTRICITY,INCLINATION,RA_OF_ASC_NODE,ARG_OF_PERICENTER,MEAN_ANOMALY,BSTAR,MEAN_MOTION_DOT,MEAN_MOTION_DDOT,TLE_LINE0,TLE_LINE1,TLE_LINE2,SEMIMAJOR_AXIS,PERIOD,APOGEE,PERIGEE,DECAYED
55660.0,STARLINK-5467,PAYLOAD,2023-11-28 14:50:33,14.98326166,0.0002322,70.0023,102.5984,241.889,118.2035,-3.191e-05,-4.74e-06,0.0,0 STARLINK-5467,1 55660U 23021AJ  23332.61844718 -.00000474  00000-0 -31910-4 0  9997,2 55660  70.0023 102.5984 0002322 241.8890 118.2035 14.98326166 44640,6950.205,96.107,573.684,570.456,0.0
55660.0,STARLINK-5467,PAYLOAD,2023-11-28 19:38:57,14.98359801,0.0002394,70.0015,102.0926,247.2226,112.868,-0.00050234,-6.086e-05,0.0,0 STARLINK-5467,1 55660U 23021AJ  23332.81871560 -.00006086  00000-0 -50234-3 0  9998,2 55660  70.0015 102.0926 0002394 247.2226 112.8680 14.98359801 44372,6950.101,96.105,573.63,570.302,0.0
55660.0,STARLINK-5467,PAYLOAD,2023-11-29 11:40:18,14.98304168,0.0002715,70.0012,100.4091,244.9139,115.1739,0.00040593,4.751e-05,0.0,0 STARLINK-5467,1 55660U 23021AJ  23333.48632738  .00004751  00000-0  40593-3 0  9996,2 55660  70.0012 100.4091 0002715 244.9139 115.1739 14.98304168 44476,6950.273,96.109,574.025,570.251,0.0
55660.0,STARLINK-5467,PAYLOAD,2023-11-29 14:52:34,14.98322983,0.0002675,70.0011,100.0725,241.3023,118.7867,7.9674e-05,8.58e-06,0.0,0 STARLINK-5467,1 55660U 23021AJ  23333.61984668  .00000858  00000-0  79674-4 0  9990,2 55660  70.0011 100.0725 0002675 241.3023 118.7867 14.98322983 44794,6950.215,96.107,573.939,570.22,0.0
55660.0,STARLINK-5467,PAYLOAD,2023-11-30 11:42:19,14.98326992,0.0002469,70.0011,97.8844,240.509,119.5823,3.7567e-05,3.55e-06,0.0,0 STARLINK-5467,1 55660U 23021AJ  23334.48772653  .00000355  00000-0  37567-4 0  9992,2 55660  70.0011  97.8844 0002469 240.5090 119.5823 14.98326992 44622,6950.202,96.107,573.783,570.351,0.0
55660.0,STARLINK-5467,PAYLOAD,2023-12-01 18:08:51,14.98346242,0.0002622,70.0013,94.6873,258.5554,101.5311,-2.1331e-05,-3.48e-06,0.0,0 STARLINK-5467,1 55660U 23021AJ  23335.75615449 -.00000348  00000-0 -21331-4 0  9998,2 55660  70.0013  94.6873 0002622 258.5554 101.5311 14.98346242 44810,6950.143,96.106,573.83,570.185,0.0
55660.0,STARLINK-5467,PAYLOAD,2023-12-02 13:22:28,14.98339672,0.0002711,70.0013,92.6661,257.8223,102.2632,0.00010562,1.168e-05,0.0,0 STARLINK-5467,1 55660U 23021AJ  23336.55726980  .00001168  00000-0  10562-3 0  9992,2 55660  70.0013  92.6661 0002711 257.8223 102.2632 14.98339672 45237,6950.163,96.106,573.912,570.144,0.0
55660.0,STARLINK-5467,PAYLOAD,2023-12-02 18:10:51,14.98346823,0.0002883,70.0008,92.1628,256.9087,103.175,0.00014517,1.64e-05,0.0,0 STARLINK-5467,1 55660U 23021AJ  23336.75754218  .00001640  00000-0  14517-3 0  9998,2 55660  70.0008  92.1628 0002883 256.9087 103.1750 14.98346823 44963,6950.141,96.106,574.01,570.002,0.0
55660.0,STARLINK-5467,PAYLOAD,2023-12-03 11:48:24,14.98299374,0.0002924,70.0011,90.3107,266.9068,93.1756,-0.00040223,-4.885e-05,0.0,0 STARLINK-5467,1 55660U 23021AJ  23337.49195153 -.00004885  00000-0 -40223-3 0  9996,2 55660  70.0011  90.3107 0002924 266.9068  93.1756 14.98299374 45070,6950.288,96.109,574.185,570.12,0.0
55660.0,STARLINK-5467,PAYLOAD,2023-12-03 13:24:32,14.98298266,0.0002805,70.0015,90.1425,253.6344,106.4506,-0.00038004,-4.621e-05,0.0,0 STARLINK-5467,1 55660U 23021AJ  23337.55871277 -.00004621  00000-0 -38004-3 0  9993,2 55660  70.0015  90.1425 0002805 253.6344 106.4506 14.98298266 45387,6950.291,96.109,574.106,570.206,0.0
55660.0,STARLINK-5467,PAYLOAD,2023-12-04 11:50:24,14.98328935,0.0002869,70.0011,87.7846,250.9197,109.1651,-6.2284e-05,-8.36e-06,0.0,0 STARLINK-5467,1 55660U 23021AJ  23338.49333924 -.00000836  00000-0 -62284-4 0  9991,2 55660  70.0011  87.7846 0002869 250.9197 109.1651 14.98328935 45229,6950.196,96.107,574.055,570.067,0.0
55660.0,STARLINK-5467,PAYLOAD,2023-12-04 13:26:32,14.98328593,0.0002955,70.0017,87.6172,255.8145,104.2686,-5.283e-05,-7.23e-06,0.0,0 STARLINK-5467,1 55660U 23021AJ  23338.56009951 -.00000723  00000-0 -52830-4 0  9990,2 55660  70.0017  87.6172 0002955 255.8145 104.2686 14.98328593 45537,6950.197,96.107,574.116,570.008,0.0
55660.0,STARLINK-5467,PAYLOAD,2023-12-04 18:14:56,14.98330571,0.0003005,70.0011,87.1114,258.891,101.1911,-2.9962e-05,-4.5e-06,0.0,0 STARLINK-5467,1 55660U 23021AJ  23338.76037835 -.00000450  00000-0 -29962-4 0  9991,2 55660  70.0011  87.1114 0003005 258.8910 101.1911 14.98330571 45561,6950.191,96.107,574.145,569.968,0.0
55660.0,STARLINK-5467,PAYLOAD,2023-12-05 11:52:24,14.98326673,0.0002959,70.001,85.2597,248.8298,111.2545,0.00051783,6.091e-05,0.0,0 STARLINK-5467,1 55660U 23021AJ  23339.49472576  .00006091  00000-0  51783-3 0  9997,2 55660  70.0010  85.2597 0002959 248.8298 111.2545 14.98326673 45371,6950.203,96.107,574.125,570.012,0.0
55660.0,STARLINK-5467,PAYLOAD,2023-12-05 13:28:32,14.98327375,0.000284,70.0015,85.0922,246.9639,113.1221,0.00052605,6.189e-05,0.0,0 STARLINK-5467,1 55660U 23021AJ  23339.56148561  .00006189  00000-0  52605-3 0  9991,2 55660  70.0015  85.0922 0002840 246.9639 113.1221 14.98327375 45689,6950.201,96.107,574.04,570.092,0.0
55660.0,STARLINK-5467,PAYLOAD,2023-12-05 16:40:48,14.98327614,0.0003007,70.0006,84.7543,259.5321,100.5499,0.00049006,5.759e-05,0.0,0 STARLINK-5467,1 55660U 23021AJ  23339.69500628  .00005759  00000-0  49006-3 0  9994,2 55660  70.0006  84.7543 0003007 259.5321 100.5499 14.98327614 45704,6950.2,96.107,574.155,569.975,0.0
55660.0,STARLINK-5467,PAYLOAD,2023-12-06 11:54:26,14.98331654,0.0002843,70.0058,82.7431,217.2695,142.8267,2.2505e-05,1.76e-06,0.0,0 STARLINK-5467,1 55660U 23021AJ  23340.49613731  .00000176  00000-0  22505-4 0  9998,2 55660  70.0058  82.7431 0002843 217.2695 142.8267 14.98331654 45528,6950.188,96.107,574.029,570.077,0.0
55660.0,STARLINK-5467,PAYLOAD,2023-12-06 13:30:35,14.98316011,0.0002892,70.0061,82.5747,212.3248,147.7734,-0.00017996,-2.239e-05,0.0,0 STARLINK-5467,1 55660U 23021AJ  23340.56291238 -.00002239  00000-0 -17996-3 0  9991,2 55660  70.0061  82.5747 0002892 212.3248 147.7734 14.98316011 45831,6950.236,96.108,574.111,570.091,0.0
55660.0,STARLINK-5467,PAYLOAD,2023-12-07 11:56:26,14.98336478,0.0002896,70.0058,80.2189,212.1212,147.9772,-0.00020587,-2.549e-05,0.0,0 STARLINK-5467,1 55660U 23021AJ  23341.49753229 -.00002549  00000-0 -20587-3 0  9991,2 55660  70.0058  80.2189 0002896 212.1212 147.9772 14.98336478 45670,6950.173,96.107,574.051,570.025,0.0
55660.0,STARLINK-5467,PAYLOAD,2023-12-07 13:32:35,14.98333588,0.0002475,70.0052,80.0485,224.2763,135.8198,-0.00023923,-2.946e-05,0.0,0 STARLINK-5467,1 55660U 23021AJ  23341.56429483 -.00002946  00000-0 -23923-3 0  9999,2 55660  70.0052  80.0485 0002475 224.2763 135.8198 14.98333588 45980,6950.182,96.107,573.767,570.327,0.0
55660.0,STARLINK-5467,PAYLOAD,2023-12-07 16:44:51,14.98331253,0.0001975,70.0046,79.7078,267.9852,92.1081,-0.00030917,-3.78e-05,0.0,0 STARLINK-5467,1 55660U 23021AJ  23341.69782011 -.00003780  00000-0 -30917-3 0  9990,2 55660  70.0046  79.7078 0001975 267.9852  92.1081 14.98331253 45706,6950.189,96.107,573.427,570.681,0.0
55660.0,STARLINK-5467,PAYLOAD,2023-12-08 11:58:27,14.98329939,0.0002726,70.0017,77.6863,256.138,103.9476,-2.995e-05,-4.5e-06,0.0,0 STARLINK-5467,1 55660U 23021AJ  23342.49892532 -.00000450  00000-0 -29950-4 0  9996,2 55660  70.0017  77.6863 0002726 256.1380 103.9476 14.98329939 45824,6950.193,96.107,573.953,570.163,0.0
55660.0,STARLINK-5467,PAYLOAD,2023-12-08 16:46:51,14.98333907,0.0002634,70.0018,77.1809,270.3205,89.7652,2.4546e-05,2e-06,0.0,0 STARLINK-5467,1 55660U 23021AJ  23342.69920296  .00000200  00000-0  24546-4 0  9994,2 55660  70.0018  77.1809 0002634 270.3205  89.7652 14.98333907 46156,6950.181,96.107,573.876,570.215,0.0
55660.0,STARLINK-5467,PAYLOAD,2023-12-09 12:00:27,14.98361261,0.0002659,70.0018,75.1622,252.9086,107.1782,-0.00063318,-7.646e-05,0.0,0 STARLINK-5467,1 55660U 23021AJ  23343.50032204 -.00007646  00000-0 -63318-3 0  9990,2 55660  70.0018  75.1622 0002659 252.9086 107.1782 14.98361261 45979,6950.096,96.105,573.809,570.113,0.0
55660.0,STARLINK-5467,PAYLOAD,2023-12-10 12:02:29,14.98327968,0.000306,70.0007,72.6359,265.9906,94.0903,-1.6527e-05,-2.9e-06,0.0,0 STARLINK-5467,1 55660U 23021AJ  23344.50172545 -.00000290  00000-0 -16527-4 0  9993,2 55660  70.0007  72.6359 0003060 265.9906  94.0903 14.98327968 46121,6950.199,96.107,574.191,569.937,0.0
55660.0,STARLINK-5467,PAYLOAD,2023-12-10 13:38:36,14.98334896,0.0003147,70.0009,72.4676,252.8493,107.2322,5.9726e-05,6.2e-06,0.0,0 STARLINK-5467,1 55660U 23021AJ  23344.56847810  .00000620  00000-0  59726-4 0  9996,2 55660  70.0009  72.4676 0003147 252.8493 107.2322 14.98334896 46439,6950.178,96.107,574.23,569.856,0.0
55660.0,STARLINK-5467,PAYLOAD,2023-12-10 15:14:45,14.98329543,0.0002934,70.0007,72.299,269.5578,90.5245,1.2228e-07,-9.2e-07,0.0,0 STARLINK-5467,1 55660U 23021AJ  23344.63524363 -.00000092  00000-0  12228-6 0  9991,2 55660  70.0007  72.2990 0002934 269.5578  90.5245 14.98329543 46448,6950.194,96.107,574.098,570.02,0.0
55660.0,STARLINK-5467,PAYLOAD,2023-12-11 12:04:30,14.98325786,0.0002948,70.0013,70.1118,263.6324,96.4499,-2.2378e-05,-3.6e-06,0.0,0 STARLINK-5467,1 55660U 23021AJ  23345.50312550 -.00000360  00000-0 -22378-4 0  9995,2 55660  70.0013  70.1118 0002948 263.6324  96.4499 14.98325786 46275,6950.206,96.107,574.12,570.022,0.0
55660.0,STARLINK-5467,PAYLOAD,2023-12-11 13:40:37,14.98329342,0.0002924,70.0007,69.9428,261.6815,98.4013,1.3162e-05,6.4e-07,0.0,0 STARLINK-5467,1 55660U 23021AJ  23345.56988185  .00000064  00000-0  13162-4 0  9994,2 55660  70.0007  69.9428 0002924 261.6815  98.4013 14.98329342 46585,6950.195,96.107,574.092,570.028,0.0
55660.0,STARLINK-5467,PAYLOAD,2023-12-11 15:16:48,14.98291075,0.0003099,70.0009,69.7748,274.4917,85.5888,-0.00041473,-5.033e-05,0.0,0 STARLINK-5467,1 55660U 23021AJ  23345.63667562 -.00005033  00000-0 -41473-3 0  9993,2 55660  70.0009  69.7748 0003099 274.4917  85.5888 14.98291075 46295,6950.313,96.109,574.332,570.024,0.0
